IRIDIUM 171             
1 43929U 19002H   23271.91345821  .00000012  00000+0 -28647-5 0  9992
2 43929  86.3980  48.4529 0002075  96.1186 264.0246 14.34214204246731
IRIDIUM 170             
1 43930U 19002J   23272.44832530  .00001871  00000+0  29274-3 0  9999
2 43930  86.6104  48.0881 0002237  89.0268 271.1206 14.72272081253342
IRIDIUM 167             
1 43931U 19002K   23271.90711383  .00000528  00000+0  18141-3 0  9991
2 43931  86.3972  48.2723 0001992  97.5367 262.6056 14.34212539246734
IRIDIUM 181             
1 56726U 23068S   23272.43713715  .00000241  00000+0  65296-4 0  9990
2 56726  86.8569  89.1175 0000864  89.0383 271.0918 14.43577283 19372
IRIDIUM 177             
1 56727U 23068T   23271.86334009  .00000922  00000+0  11780-3 0  9996
2 56727  86.1930  79.8948 0002381  97.8515 262.2976 14.80240102 19578
IRIDIUM 174             
1 56728U 23068U   23271.85790740  .00000924  00000+0  11806-3 0  9995
2 56728  86.1937  79.9800 0002408  87.9138 272.2359 14.80239939 19577
IRIDIUM 178             
1 56729U 23068V   23271.85226770  .00000890  00000+0  11365-3 0  9995
2 56729  86.5729  85.0191 0002607  91.2303 268.9217 14.80229754 19574
IRIDIUM 179             
1 56730U 23068W   23272.45529649  .00000878  00000+0  11207-3 0  9996
2 56730  86.6739  85.6005 0002559  93.6420 266.5094 14.80230821 19664
